OBJECT_NAME,OBJECT_ID,EPOCH,MEAN_MOTION,ECCENTRICITY,INCLINATION,RA_OF_ASC_NODE,ARG_OF_PERICENTER,MEAN_ANOMALY,EPHEMERIS_TYPE,CLASSIFICATION_TYPE,NORAD_CAT_ID,ELEMENT_SET_NO,REV_AT_EPOCH,BSTAR,MEAN_MOTION_DOT,MEAN_MOTION_DDOT
STARLINK-32817,2025-037C,2026-05-08T21:40:14.136096,14.98338573,.0003773,70.0006,202.5414,269.0823,90.9904,0,U,63079,999,6761,.41231E-3,.4831E-4,0
STARLINK-32906,2025-037D,2026-05-09T05:11:06.821088,14.98333107,.0003479,70.0003,202.0278,265.1079,94.9683,0,U,63080,999,6766,.43478E-4,.426E-5,0
STARLINK-32895,2025-037E,2026-05-09T05:04:51.642048,14.98354352,.0004055,70.0008,202.0180,269.5961,90.4734,0,U,63081,999,6752,-.47615E-3,-.5774E-4,0
STARLINK-32933,2025-037F,2026-05-08T22:04:30.980064,14.98339116,.0003966,69.9996,202.5972,267.9173,92.1532,0,U,63082,999,6756,.45736E-3,.537E-4,0
STARLINK-32932,2025-037G,2026-05-08T22:10:18.389280,14.98339075,.0003606,70.0005,202.6190,271.6454,88.4292,0,U,63083,999,6748,.53398E-3,.6286E-4,0
STARLINK-32908,2025-037H,2026-05-08T21:58:15.464064,14.98338660,.0003335,70.0004,202.5857,270.1588,89.9189,0,U,63084,999,6748,.21904E-3,.2522E-4,0
STARLINK-32505,2025-037J,2026-05-09T05:05:06.526176,14.98337425,.0003655,70.0003,202.0166,266.3248,93.7493,0,U,63085,999,6761,.24919E-3,.2882E-4,0
STARLINK-32914,2025-037K,2026-05-08T12:27:28.458432,14.98335225,.00032259,70.0005,203.6086,268.1343,91.9447,0,U,63086,999,6756,.41566616E-3,.4871E-4,0
STARLINK-32918,2025-037L,2026-05-08T22:28:18.998400,14.98339271,.0003983,70.0007,202.6600,269.4225,90.6478,0,U,63087,999,6771,.39533E-3,.4628E-4,0
STARLINK-32912,2025-037M,2026-05-09T03:46:59.187936,14.98328872,.0003794,70.0002,201.8297,268.3750,91.6975,0,U,63088,999,6776,.23571E-3,.2721E-4,0
STARLINK-32910,2025-037N,2026-05-08T22:10:31.776960,14.98337696,.0003426,70.0005,202.6137,271.2575,88.8192,0,U,63089,999,6762,.42176E-3,.4944E-4,0
STARLINK-32903,2025-037P,2026-05-09T05:16:51.260736,14.98338745,.0003789,70.0005,201.6491,269.9612,90.1112,0,U,63090,999,6753,.2427E-3,.2805E-4,0
STARLINK-32925,2025-037Q,2026-05-09T03:46:42.980160,14.98343561,.0003375,70.0003,201.8268,265.9055,94.1718,0,U,63091,999,6760,.83131E-4,.899E-5,0
STARLINK-32924,2025-037R,2026-05-08T13:33:32.844672,14.98340810,.00036045,70.0004,203.3740,268.2628,91.8118,0,U,63092,999,6757,.41367806E-3,.4848E-4,0
STARLINK-32900,2025-037S,2026-05-08T21:52:14.160864,14.98349389,.000375,70.0005,202.5733,271.3060,88.7670,0,U,63093,999,6748,.38401E-3,.4494E-4,0
STARLINK-32927,2025-037T,2026-05-09T04:58:51.818016,14.98340187,.000374,70.0011,202.0028,269.2416,90.8315,0,U,63094,999,6761,.35717E-3,.4172E-4,0
STARLINK-32907,2025-037U,2026-05-08T22:16:18.330816,14.98336463,.000356,70.0007,202.6265,272.3394,87.7357,0,U,63095,999,6757,.43875E-3,.5147E-4,0
STARLINK-32911,2025-037V,2026-05-09T05:10:52.374144,14.98356127,.0003785,70.0006,202.0292,268.1769,91.8957,0,U,63096,999,6765,-.53772E-3,-.6508E-4,0
STARLINK-32923,2025-037W,2026-05-08T13:27:31.855104,14.98329593,.00040954,70.0006,203.3582,273.4636,86.6054,0,U,63097,999,6757,.81396552E-4,.878E-5,0
STARLINK-32913,2025-037X,2026-05-08T21:46:14.819808,14.98338681,.0003603,70.0004,202.5519,269.7969,90.2777,0,U,63098,999,6763,.42679E-3,.5004E-4,0
STARLINK-11629 [DTC],2025-039A,2026-05-08T07:15:42.761664,15.70935845,.0002105,42.9987,237.2840,264.7259,95.3368,0,U,63104,999,6899,.1318372E-2,.172983E-2,0
STARLINK-11624 [DTC],2025-039B,2026-05-08T23:33:47.449152,15.70876478,.0000311,42.9988,233.8011,42.8368,317.2524,0,U,63105,999,6909,.14073E-2,.184472E-2,0
STARLINK-11584 [DTC],2025-039C,2026-05-09T04:07:08.730912,15.70856586,.0001941,43.0001,232.6444,280.3078,79.7570,0,U,63106,999,6912,.15721E-2,.206509E-2,0
STARLINK-11627 [DTC],2025-039D,2026-05-09T00:18:09.015840,15.70928763,.0002994,43.0003,233.1544,281.3529,78.7002,0,U,63107,999,6910,.13837E-2,.181725E-2,0
STARLINK-11632 [DTC],2025-039E,2026-05-08T17:03:17.213760,15.70866794,.00023449,43.0010,235.1972,275.8040,84.2560,0,U,63108,999,6905,.11888423E-2,.155158E-2,0
STARLINK-11625 [DTC],2025-039F,2026-05-08T15:39:22.630464,15.70887017,.00020287,43.0021,235.6233,273.8918,86.1717,0,U,63109,999,6904,.12723328E-2,.16645E-2,0
STARLINK-11601 [DTC],2025-039G,2026-05-08T16:48:00.040608,15.70886469,.00014711,43.0009,235.1126,272.6716,87.3983,0,U,63110,999,6905,.9490664E-3,.123393E-2,0
STARLINK-11630 [DTC],2025-039H,2026-05-08T14:15:27.986688,15.70877463,.00009796,43.0001,236.0482,265.6963,94.3792,0,U,63111,999,6903,.13015515E-2,.17029E-2,0
STARLINK-11590 [DTC],2025-039J,2026-05-09T04:14:47.541696,15.71003019,.0003432,43.0032,232.6834,285.7282,74.3208,0,U,63112,999,6912,.14546E-2,.191901E-2,0
STARLINK-11598 [DTC],2025-039K,2026-05-08T18:27:12.090816,15.70937512,.00027745,42.9995,234.7700,278.0912,81.9641,0,U,63113,999,6906,.18540018E-2,.245626E-2,0
