STARLINK-32817          
1 63079U 25037C   26128.90294139  .00004831  00000+0  41231-3 0  9997
2 63079  70.0006 202.5414 0003773 269.0823  90.9904 14.98338573 67610
STARLINK-32906          
1 63080U 25037D   26129.21605117  .00000426  00000+0  43478-4 0  9998
2 63080  70.0003 202.0278 0003479 265.1079  94.9683 14.98333107 67666
STARLINK-32895          
1 63081U 25037E   26129.21170882 -.00005774  00000+0 -47615-3 0  9994
2 63081  70.0008 202.0180 0004055 269.5961  90.4734 14.98354352 67521
STARLINK-32933          
1 63082U 25037F   26128.91980301  .00005370  00000+0  45736-3 0  9998
2 63082  69.9996 202.5972 0003966 267.9173  92.1532 14.98339116 67566
STARLINK-32932          
1 63083U 25037G   26128.92382395  .00006286  00000+0  53398-3 0  9999
2 63083  70.0005 202.6190 0003606 271.6454  88.4292 14.98339075 67485
STARLINK-32908          
1 63084U 25037H   26128.91545676  .00002522  00000+0  21904-3 0  9999
2 63084  70.0004 202.5857 0003335 270.1588  89.9189 14.98338660 67485
STARLINK-32505          
1 63085U 25037J   26129.21188109  .00002882  00000+0  24919-3 0  9996
2 63085  70.0003 202.0166 0003655 266.3248  93.7493 14.98337425 67612
STARLINK-32914          
1 63086U 25037K   26128.51907938  .00004871  00000+0  41567-3 0  9996
2 63086  70.0005 203.6086 0003225 268.1343  91.9447 14.98335225 67561
STARLINK-32918          
1 63087U 25037L   26128.93633100  .00004628  00000+0  39533-3 0  9990
2 63087  70.0007 202.6600 0003983 269.4225  90.6478 14.98339271 67711
STARLINK-32912          
1 63088U 25037M   26129.15762949  .00002721  00000+0  23571-3 0  9997
2 63088  70.0002 201.8297 0003794 268.3750  91.6975 14.98328872 67764
STARLINK-32910          
1 63089U 25037N   26128.92397890  .00004944  00000+0  42176-3 0  9992
2 63089  70.0005 202.6137 0003426 271.2575  88.8192 14.98337696 67628
STARLINK-32903          
1 63090U 25037P   26129.22003774  .00002805  00000+0  24270-3 0  9992
2 63090  70.0005 201.6491 0003789 269.9612  90.1112 14.98338745 67534
STARLINK-32925          
1 63091U 25037Q   26129.15744190  .00000899  00000+0  83131-4 0  9992
2 63091  70.0003 201.8268 0003375 265.9055  94.1718 14.98343561 67601
STARLINK-32924          
1 63092U 25037R   26128.56496348  .00004848  00000+0  41368-3 0  9999
2 63092  70.0004 203.3740 0003604 268.2628  91.8118 14.98340810 67570
STARLINK-32900          
1 63093U 25037S   26128.91127501  .00004494  00000+0  38401-3 0  9992
2 63093  70.0005 202.5733 0003750 271.3060  88.7670 14.98349389 67480
STARLINK-32927          
1 63094U 25037T   26129.20754419  .00004172  00000+0  35717-3 0  9990
2 63094  70.0011 202.0028 0003740 269.2416  90.8315 14.98340187 67612
STARLINK-32907          
1 63095U 25037U   26128.92798994  .00005147  00000+0  43875-3 0  9992
2 63095  70.0007 202.6265 0003560 272.3394  87.7357 14.98336463 67575
STARLINK-32911          
1 63096U 25037V   26129.21588396 -.00006508  00000+0 -53772-3 0  9990
2 63096  70.0006 202.0292 0003785 268.1769  91.8957 14.98356127 67657
STARLINK-32923          
1 63097U 25037W   26128.56078536  .00000878  00000+0  81397-4 0  9995
2 63097  70.0006 203.3582 0004095 273.4636  86.6054 14.98329593 67579
STARLINK-32913          
1 63098U 25037X   26128.90711597  .00005004  00000+0  42679-3 0  9990
2 63098  70.0004 202.5519 0003603 269.7969  90.2777 14.98338681 67638
STARLINK-11629 [DTC]    
1 63104U 25039A   26128.30257826  .00172983  00000+0  13184-2 0  9993
2 63104  42.9987 237.2840 0002105 264.7259  95.3368 15.70935845 68997
STARLINK-11624 [DTC]    
1 63105U 25039B   26128.98179918  .00184472  00000+0  14073-2 0  9997
2 63105  42.9988 233.8011 0000311  42.8368 317.2524 15.70876478 69092
STARLINK-11584 [DTC]    
1 63106U 25039C   26129.17162883  .00206509  00000+0  15721-2 0  9990
2 63106  43.0001 232.6444 0001941 280.3078  79.7570 15.70856586 69128
STARLINK-11627 [DTC]    
1 63107U 25039D   26129.01260435  .00181725  00000+0  13837-2 0  9994
2 63107  43.0003 233.1544 0002994 281.3529  78.7002 15.70928763 69103
STARLINK-11632 [DTC]    
1 63108U 25039E   26128.71061590  .00155158  00000+0  11888-2 0  9997
2 63108  43.0010 235.1972 0002344 275.8040  84.2560 15.70866794 69054
STARLINK-11625 [DTC]    
1 63109U 25039F   26128.65234526  .00166450  00000+0  12723-2 0  9998
2 63109  43.0021 235.6233 0002028 273.8918  86.1717 15.70887017 69048
STARLINK-11601 [DTC]    
1 63110U 25039G   26128.70000047  .00123393  00000+0  94907-3 0  9999
2 63110  43.0009 235.1126 0001471 272.6716  87.3983 15.70886469 69055
STARLINK-11630 [DTC]    
1 63111U 25039H   26128.59407392  .00170290  00000+0  13016-2 0  9990
2 63111  43.0001 236.0482 0000979 265.6963  94.3792 15.70877463 69039
STARLINK-11590 [DTC]    
1 63112U 25039J   26129.17693914  .00191901  00000+0  14546-2 0  9994
2 63112  43.0032 232.6834 0003432 285.7282  74.3208 15.71003019 69120
STARLINK-11598 [DTC]    
1 63113U 25039K   26128.76888994  .00245626  00000+0  18540-2 0  9995
2 63113  42.9995 234.7700 0002774 278.0912  81.9641 15.70937512 69066
